OBJECT_NAME,OBJECT_ID,EPOCH,MEAN_MOTION,ECCENTRICITY,INCLINATION,RA_OF_ASC_NODE,ARG_OF_PERICENTER,MEAN_ANOMALY,EPHEMERIS_TYPE,CLASSIFICATION_TYPE,NORAD_CAT_ID,ELEMENT_SET_NO,REV_AT_EPOCH,BSTAR,MEAN_MOTION_DOT,MEAN_MOTION_DDOT
ONEWEB-0637,2023-043AJ,2026-07-07T03:11:27.811392,13.15548234,.0002077,87.8990,255.2408,90.5707,269.5661,0,U,56078,999,15905,-.22698E-3,-.73E-6,0
ONEWEB-0647,2023-043AK,2026-07-07T03:04:37.369920,13.15548939,.0001929,87.8992,255.2542,100.6245,259.5102,0,U,56079,999,15904,-.16164E-3,-.48E-6,0
ONEWEB-0651,2023-043AL,2026-07-07T04:47:18.013056,13.15548228,.0001908,87.8991,255.2334,92.5395,267.5954,0,U,56080,999,16025,.44312E-3,.18E-5,0
ONEWEB-0718,2023-043AM,2026-07-06T15:53:48.037056,13.15548876,.0002563,87.8993,255.3207,97.3001,262.8421,0,U,56081,999,15899,-.66959E-4,-.12E-6,0
ONEWEB-0561,2023-068A,2026-07-07T04:44:19.356000,13.20770795,.0001677,87.9194,270.4562,101.2777,258.8545,0,U,56710,999,15214,-.60769E-3,-.234E-5,0
ONEWEB-0668,2023-068B,2026-07-07T00:52:02.197056,13.16594739,.0002482,87.9083,224.8300,85.4713,274.6701,0,U,56711,999,15439,.17842E-3,.81E-6,0
ONEWEB-0676,2023-068C,2026-07-06T15:56:15.794880,13.16594232,.0001788,87.9084,224.9103,89.3952,270.7384,0,U,56712,999,15426,-.19741E-3,-.63E-6,0
ONEWEB-0677,2023-068D,2026-07-07T04:27:23.531328,13.20771326,.0001993,87.9192,270.4499,88.2538,271.8824,0,U,56713,999,15244,.16836E-3,.81E-6,0
ONEWEB-0678,2023-068E,2026-07-07T03:54:49.268736,13.15547512,.0001935,87.8999,255.2152,106.4453,253.6890,0,U,56714,999,15191,.20769E-3,.91E-6,0
ONEWEB-0679,2023-068F,2026-07-06T14:56:58.668864,13.16593575,.0002201,87.9080,224.9098,79.8193,280.3186,0,U,56715,999,15428,.31351E-4,.25E-6,0
ONEWEB-0680,2023-068G,2026-07-07T01:54:49.428864,13.21825531,.0002422,87.9246,240.0140,84.9410,275.2000,0,U,56716,999,15372,.93209E-4,.52E-6,0
ONEWEB-0681,2023-068H,2026-07-06T16:21:57.346272,13.21824637,.0001276,87.9244,240.0937,81.9955,278.1324,0,U,56717,999,15366,.38819E-3,.173E-5,0
ONEWEB-0682,2023-068J,2026-07-06T17:31:54.990048,13.15548006,.0002362,87.9000,255.3016,87.0986,273.0414,0,U,56718,999,15202,.17844E-3,.8E-6,0
ONEWEB-0683,2023-068K,2026-07-07T03:13:44.842656,13.15548189,.0002282,87.9002,255.2216,94.8964,265.2426,0,U,56719,999,15204,-.23002E-3,-.74E-6,0
ONEWEB-0684,2023-068L,2026-07-06T16:28:01.474752,13.15548960,.0002651,87.8997,255.3003,128.6312,231.5056,0,U,56720,999,15181,-.11178E-3,-.29E-6,0
ONEWEB-0686,2023-068M,2026-07-06T13:59:59.013024,13.16593617,.0002412,87.9073,224.9391,96.8854,263.2552,0,U,56721,999,15426,-.61596E-4,-.11E-6,0
ONEWEB-0694,2023-068N,2026-07-06T14:09:06.013152,13.16593194,.0002418,87.9093,224.9064,86.3210,273.8197,0,U,56722,999,15432,-.17941E-3,-.56E-6,0
ONEWEB-0696,2023-068P,2026-07-07T04:13:04.552032,13.15549461,.000184,87.8994,255.2391,111.1432,248.9895,0,U,56723,999,15199,.45044E-3,.182E-5,0
ONEWEB-0703,2023-068Q,2026-07-06T17:29:37.113792,13.15547893,.0001403,87.8993,255.3097,120.1130,240.0139,0,U,56724,999,15182,.3059E-3,.128E-5,0
ONEWEB-0721,2023-068R,2026-07-07T02:44:01.085280,13.22471018,.0001796,86.6755,79.1560,78.7181,281.4153,0,U,56725,999,16057,.22136E-3,.107E-5,0
ONEWEB-0015,2024-188A,2026-07-06T23:51:24.377760,13.11414578,.0001714,87.8876,17.1483,72.7623,287.3693,0,U,61594,999,8705,.35624E-3,.139E-5,0
ONEWEB-0687,2024-188B,2026-07-06T21:33:28.952928,13.17649613,.000216,87.9131,1.9538,79.4610,280.6765,0,U,61595,999,8849,-.40489E-5,.11E-6,0
ONEWEB-0688,2024-188C,2026-07-06T22:14:46.718304,13.17649951,.0001694,87.9132,1.9479,51.1751,308.9531,0,U,61596,999,8849,.65892E-4,.38E-6,0
ONEWEB-0689,2024-188D,2026-07-06T22:50:21.460128,13.11417961,.0002148,87.8892,17.1177,86.6138,273.5235,0,U,61597,999,8704,-.59057E-3,-.197E-5,0
ONEWEB-0690,2024-188E,2026-07-06T23:05:01.411296,13.11418075,.0001357,87.8888,17.1263,103.3878,256.7401,0,U,61598,999,8722,.6429E-3,.241E-5,0
ONEWEB-0691,2024-188F,2026-07-06T22:57:41.509152,13.11417293,.000188,87.8897,17.0378,76.2830,283.8507,0,U,61599,999,8707,.48404E-5,.14E-6,0
ONEWEB-0692,2024-188G,2026-07-06T23:27:00.216576,13.11417364,.0002518,87.8879,17.1434,101.1487,258.9924,0,U,61600,999,8706,.15563E-2,.564E-5,0
ONEWEB-0693,2024-188H,2026-07-06T20:42:27.164160,13.17649689,.0001156,87.9130,1.9796,106.0226,254.1033,0,U,61601,999,8847,.95975E-4,.5E-6,0
ONEWEB-0695,2024-188J,2026-07-06T13:43:28.424064,13.11418097,.0002365,87.8880,17.2162,91.7786,268.3612,0,U,61602,999,8700,-.27866E-3,-.86E-6,0
ONEWEB-0697,2024-188K,2026-07-06T23:39:12.675168,13.11415138,.0002443,87.8879,17.1241,102.9179,257.2222,0,U,61603,999,8704,.11995E-2,.438E-5,0
ONEWEB-0698,2024-188L,2026-07-06T13:58:07.995072,13.11417691,.0002045,87.8879,17.2183,122.9678,237.1647,0,U,61604,999,8701,.94473E-3,.348E-5,0
