ONEWEB-0637             
1 56078U 23043AJ  26188.13296078 -.00000073  00000+0 -22698-3 0  9990
2 56078  87.8990 255.2408 0002077  90.5707 269.5661 13.15548234159050
ONEWEB-0647             
1 56079U 23043AK  26188.12821030 -.00000048  00000+0 -16164-3 0  9995
2 56079  87.8992 255.2542 0001929 100.6245 259.5102 13.15548939159047
ONEWEB-0651             
1 56080U 23043AL  26188.19951404  .00000180  00000+0  44312-3 0  9994
2 56080  87.8991 255.2334 0001908  92.5395 267.5954 13.15548228160259
ONEWEB-0718             
1 56081U 23043AM  26187.66236154 -.00000012  00000+0 -66959-4 0  9992
2 56081  87.8993 255.3207 0002563  97.3001 262.8421 13.15548876158991
ONEWEB-0561             
1 56710U 23068A   26188.19744625 -.00000234  00000+0 -60769-3 0  9992
2 56710  87.9194 270.4562 0001677 101.2777 258.8545 13.20770795152142
ONEWEB-0668             
1 56711U 23068B   26188.03613654  .00000081  00000+0  17842-3 0  9995
2 56711  87.9083 224.8300 0002482  85.4713 274.6701 13.16594739154397
ONEWEB-0676             
1 56712U 23068C   26187.66407170 -.00000063  00000+0 -19741-3 0  9990
2 56712  87.9084 224.9103 0001788  89.3952 270.7384 13.16594232154265
ONEWEB-0677             
1 56713U 23068D   26188.18568902  .00000081  00000+0  16836-3 0  9990
2 56713  87.9192 270.4499 0001993  88.2538 271.8824 13.20771326152441
ONEWEB-0678             
1 56714U 23068E   26188.16307024  .00000091  00000+0  20769-3 0  9996
2 56714  87.8999 255.2152 0001935 106.4453 253.6890 13.15547512151912
ONEWEB-0679             
1 56715U 23068F   26187.62290126  .00000025  00000+0  31351-4 0  9998
2 56715  87.9080 224.9098 0002201  79.8193 280.3186 13.16593575154287
ONEWEB-0680             
1 56716U 23068G   26188.07973876  .00000052  00000+0  93209-4 0  9999
2 56716  87.9246 240.0140 0002422  84.9410 275.2000 13.21825531153725
ONEWEB-0681             
1 56717U 23068H   26187.68191373  .00000173  00000+0  38819-3 0  9999
2 56717  87.9244 240.0937 0001276  81.9955 278.1324 13.21824637153665
ONEWEB-0682             
1 56718U 23068J   26187.73049757  .00000080  00000+0  17844-3 0  9996
2 56718  87.9000 255.3016 0002362  87.0986 273.0414 13.15548006152020
ONEWEB-0683             
1 56719U 23068K   26188.13454679 -.00000074  00000+0 -23002-3 0  9993
2 56719  87.9002 255.2216 0002282  94.8964 265.2426 13.15548189152047
ONEWEB-0684             
1 56720U 23068L   26187.68612818 -.00000029  00000+0 -11178-3 0  9996
2 56720  87.8997 255.3003 0002651 128.6312 231.5056 13.15548960151815
ONEWEB-0686             
1 56721U 23068M   26187.58332191 -.00000011  00000+0 -61596-4 0  9990
2 56721  87.9073 224.9391 0002412  96.8854 263.2552 13.16593617154261
ONEWEB-0694             
1 56722U 23068N   26187.58965293 -.00000056  00000+0 -17941-3 0  9999
2 56722  87.9093 224.9064 0002418  86.3210 273.8197 13.16593194154326
ONEWEB-0696             
1 56723U 23068P   26188.17574713  .00000182  00000+0  45044-3 0  9992
2 56723  87.8994 255.2391 0001840 111.1432 248.9895 13.15549461151992
ONEWEB-0703             
1 56724U 23068Q   26187.72890178  .00000128  00000+0  30590-3 0  9999
2 56724  87.8993 255.3097 0001403 120.1130 240.0139 13.15547893151829
ONEWEB-0721             
1 56725U 23068R   26188.11390145  .00000107  00000+0  22136-3 0  9997
2 56725  86.6755  79.1560 0001796  78.7181 281.4153 13.22471018160579
ONEWEB-0015             
1 61594U 24188A   26187.99403215  .00000139  00000+0  35624-3 0  9990
2 61594  87.8876  17.1483 0001714  72.7623 287.3693 13.11414578 87058
ONEWEB-0687             
1 61595U 24188B   26187.89825177  .00000011  00000+0 -40489-5 0  9992
2 61595  87.9131   1.9538 0002160  79.4610 280.6765 13.17649613 88493
ONEWEB-0688             
1 61596U 24188C   26187.92692961  .00000038  00000+0  65892-4 0  9992
2 61596  87.9132   1.9479 0001694  51.1751 308.9531 13.17649951 88493
ONEWEB-0689             
1 61597U 24188D   26187.95163727 -.00000197  00000+0 -59057-3 0  9992
2 61597  87.8892  17.1177 0002148  86.6138 273.5235 13.11417961 87043
ONEWEB-0690             
1 61598U 24188E   26187.96182189  .00000241  00000+0  64290-3 0  9990
2 61598  87.8888  17.1263 0001357 103.3878 256.7401 13.11418075 87229
ONEWEB-0691             
1 61599U 24188F   26187.95673043  .00000014  00000+0  48404-5 0  9993
2 61599  87.8897  17.0378 0001880  76.2830 283.8507 13.11417293 87075
ONEWEB-0692             
1 61600U 24188G   26187.97708584  .00000564  00000+0  15563-2 0  9994
2 61600  87.8879  17.1434 0002518 101.1487 258.9924 13.11417364 87061
ONEWEB-0693             
1 61601U 24188H   26187.86281440  .00000050  00000+0  95975-4 0  9997
2 61601  87.9130   1.9796 0001156 106.0226 254.1033 13.17649689 88475
ONEWEB-0695             
1 61602U 24188J   26187.57185676 -.00000086  00000+0 -27866-3 0  9994
2 61602  87.8880  17.2162 0002365  91.7786 268.3612 13.11418097 87007
ONEWEB-0697             
1 61603U 24188K   26187.98556337  .00000438  00000+0  11995-2 0  9990
2 61603  87.8879  17.1241 0002443 102.9179 257.2222 13.11415138 87042
ONEWEB-0698             
1 61604U 24188L   26187.58203698  .00000348  00000+0  94473-3 0  9999
2 61604  87.8879  17.2183 0002045 122.9678 237.1647 13.11417691 87014
